NORAD_CAT_ID,OBJECT_NAME,OBJECT_TYPE,EPOCH,MEAN_MOTION,ECCENTRICITY,INCLINATION,RA_OF_ASC_NODE,ARG_OF_PERICENTER,MEAN_ANOMALY,BSTAR,MEAN_MOTION_DOT,MEAN_MOTION_DDOT,TLE_LINE0,TLE_LINE1,TLE_LINE2,SEMIMAJOR_AXIS,PERIOD,APOGEE,PERIGEE,DECAYED
52856.0,STARLINK-4201,PAYLOAD,2023-05-10 21:12:01,15.08853822,0.0001131,53.2165,345.0616,93.8167,266.2955,0.0011656,0.00018318,0.0,0 STARLINK-4201,1 52856U 22062AC  23130.88334775  .00018318  00000-0  11656-2 0  9994,2 52856  53.2165 345.0616 0001131  93.8167 266.2955 15.08853822 50344,6917.838,95.437,540.486,538.921,0.0
52856.0,STARLINK-4201,PAYLOAD,2023-05-11 21:02:48,15.08842836,4.04e-05,53.2156,340.6005,44.5208,315.5816,0.00092113,0.00014404,0.0,0 STARLINK-4201,1 52856U 22062AC  23131.87695200  .00014404  00000-0  92113-3 0  9997,2 52856  53.2156 340.6005 0000404  44.5208 315.5816 15.08842836 50491,6917.872,95.437,540.016,539.457,0.0
52856.0,STARLINK-4201,PAYLOAD,2023-05-12 20:53:35,15.08841489,8.2e-05,53.2147,336.1416,91.1164,268.9922,0.00027798,4.139e-05,0.0,0 STARLINK-4201,1 52856U 22062AC  23132.87055304  .00004139  00000-0  27798-3 0  9994,2 52856  53.2147 336.1416 0000820  91.1164 268.9922 15.08841489 50647,6917.876,95.437,540.308,539.174,0.0
52856.0,STARLINK-4201,PAYLOAD,2023-05-13 20:44:22,15.0884689,0.0001053,53.2156,331.6825,112.3876,247.7228,0.00025619,3.793e-05,0.0,0 STARLINK-4201,1 52856U 22062AC  23133.86415082  .00003793  00000-0  25619-3 0  9992,2 52856  53.2156 331.6825 0001053 112.3876 247.7228 15.08846890 50304,6917.859,95.437,540.453,538.996,0.0
52856.0,STARLINK-4201,PAYLOAD,2023-05-14 06:16:41,15.08839036,0.0001112,53.216,329.8973,79.9624,280.1494,0.00011311,1.513e-05,0.0,0 STARLINK-4201,1 52856U 22062AC  23134.26159568  .00001513  00000-0  11311-3 0  9993,2 52856  53.2160 329.8973 0001112  79.9624 280.1494 15.08839036 50857,6917.883,95.438,540.518,538.979,0.0
52856.0,STARLINK-4201,PAYLOAD,2023-05-14 12:38:14,15.08838155,0.0001273,53.216,328.711,70.513,289.5999,6.01e-05,6.69e-06,0.0,0 STARLINK-4201,1 52856U 22062AC  23134.52655712  .00000669  00000-0  60100-4 0  9996,2 52856  53.2160 328.7110 0001273  70.5130 289.5999 15.08838155 50400,6917.886,95.438,540.632,538.87,0.0
52856.0,STARLINK-4201,PAYLOAD,2023-05-14 20:35:10,15.0883288,0.0001207,53.2161,327.2204,71.5037,288.6087,-1.0567e-05,-4.56e-06,0.0,0 STARLINK-4201,1 52856U 22062AC  23134.85776214 -.00000456  00000-0 -10567-4 0  9991,2 52856  53.2161 327.2204 0001207  71.5037 288.6087 15.08832880 50455,6917.902,95.438,540.602,538.932,0.0
52856.0,STARLINK-4201,PAYLOAD,2023-05-15 12:29:01,15.08843559,9.83e-05,53.2158,324.2461,86.4109,273.6996,7.5323e-05,9.11e-06,0.0,0 STARLINK-4201,1 52856U 22062AC  23135.52015785  .00000911  00000-0  75323-4 0  9990,2 52856  53.2158 324.2461 0000983  86.4109 273.6996 15.08843559 51042,6917.87,95.437,540.415,539.054,0.0
52856.0,STARLINK-4201,PAYLOAD,2023-05-15 18:50:33,15.08849575,0.0001007,53.2157,323.0574,81.2102,278.9004,0.00018432,2.648e-05,0.0,0 STARLINK-4201,1 52856U 22062AC  23135.78511470  .00002648  00000-0  18432-3 0  9996,2 52856  53.2157 323.0574 0001007  81.2102 278.9004 15.08849575 50598,6917.851,95.437,540.413,539.019,0.0
52856.0,STARLINK-4201,PAYLOAD,2023-05-16 12:19:48,15.08841839,0.0001161,53.2145,319.7854,77.0457,283.0665,0.00020644,2.999e-05,0.0,0 STARLINK-4201,1 52856U 22062AC  23136.51375986  .00002999  00000-0  20644-3 0  9995,2 52856  53.2145 319.7854 0001161  77.0457 283.0665 15.08841839 50703,6917.875,95.437,540.543,538.937,0.0
52856.0,STARLINK-4201,PAYLOAD,2023-05-16 21:52:07,15.08846563,0.000119,53.2148,318.0005,80.1615,279.9512,0.00019317,2.788e-05,0.0,0 STARLINK-4201,1 52856U 22062AC  23136.91119731  .00002788  00000-0  19317-3 0  9994,2 52856  53.2148 318.0005 0001190  80.1615 279.9512 15.08846563 51254,6917.86,95.437,540.549,538.902,0.0
52856.0,STARLINK-4201,PAYLOAD,2023-05-17 02:38:17,15.08834357,0.0001735,53.2156,317.1105,49.6205,310.4938,-5.6381e-05,-1.185e-05,0.0,0 STARLINK-4201,1 52856U 22062AC  23137.10992265 -.00001185  00000-0 -56381-4 0  9992,2 52856  53.2156 317.1105 0001735  49.6205 310.4938 15.08834357 51288,6917.898,95.438,540.963,538.562,0.0
52856.0,STARLINK-4201,PAYLOAD,2023-05-17 18:32:08,15.08845127,9e-05,53.2154,314.1345,79.7186,280.3907,0.00015909,2.245e-05,0.0,0 STARLINK-4201,1 52856U 22062AC  23137.77231622  .00002245  00000-0  15909-3 0  9994,2 52856  53.2154 314.1345 0000900  79.7186 280.3907 15.08845127 51383,6917.865,95.437,540.352,539.107,0.0
52856.0,STARLINK-4201,PAYLOAD,2023-05-17 20:07:31,15.08846784,9.74e-05,53.2155,313.8375,77.551,282.5591,0.00022336,3.269e-05,0.0,0 STARLINK-4201,1 52856U 22062AC  23137.83855624  .00003269  00000-0  22336-3 0  9994,2 52856  53.2155 313.8375 0000974  77.5510 282.5591 15.08846784 50901,6917.86,95.437,540.398,539.051,0.0
52856.0,STARLINK-4201,PAYLOAD,2023-05-17 23:18:17,15.08850328,8.87e-05,53.2152,313.2425,72.3479,287.761,0.00050896,7.824e-05,0.0,0 STARLINK-4201,1 52856U 22062AC  23137.97103578  .00007824  00000-0  50896-3 0  9996,2 52856  53.2152 313.2425 0000887  72.3479 287.7610 15.08850328 50928,6917.849,95.437,540.327,539.1,0.0
52856.0,STARLINK-4201,PAYLOAD,2023-05-18 18:22:55,15.08844212,9.97e-05,53.2156,309.674,87.8102,272.3005,0.00041601,6.34e-05,0.0,0 STARLINK-4201,1 52856U 22062AC  23138.76591877  .00006340  00000-0  41601-3 0  9993,2 52856  53.2156 309.6740 0000997  87.8102 272.3005 15.08844212 51538,6917.868,95.437,540.422,539.043,0.0
52856.0,STARLINK-4201,PAYLOAD,2023-05-19 03:55:14,15.0883863,0.0001375,53.2157,307.8884,89.3141,270.8008,0.00012036,1.628e-05,0.0,0 STARLINK-4201,1 52856U 22062AC  23139.16335984  .00001628  00000-0  12036-3 0  9997,2 52856  53.2157 307.8884 0001375  89.3141 270.8008 15.08838630 51598,6917.885,95.438,540.701,538.798,0.0
52856.0,STARLINK-4201,PAYLOAD,2023-05-19 18:13:42,15.08844141,0.0001357,53.2154,305.2127,88.8216,271.2931,0.00016394,2.322e-05,0.0,0 STARLINK-4201,1 52856U 22062AC  23139.75951845  .00002322  00000-0  16394-3 0  9995,2 52856  53.2154 305.2127 0001357  88.8216 271.2931 15.08844141 51194,6917.868,95.437,540.671,538.794,0.0
52856.0,STARLINK-4201,PAYLOAD,2023-05-20 16:29:05,15.08857112,0.0001035,53.2135,301.0528,110.0366,250.0738,0.0001964,2.841e-05,0.0,0 STARLINK-4201,1 52856U 22062AC  23140.68687270  .00002841  00000-0  19640-3 0  9990,2 52856  53.2135 301.0528 0001035 110.0366 250.0738 15.08857112 51821,6917.828,95.436,540.409,538.977,0.0
52856.0,STARLINK-4201,PAYLOAD,2023-05-20 19:39:51,15.08863253,0.0001051,53.2135,300.4582,111.1519,248.9585,0.00054219,8.357e-05,0.0,0 STARLINK-4201,1 52856U 22062AC  23140.81935098  .00008357  00000-0  54219-3 0  9998,2 52856  53.2135 300.4582 0001051 111.1519 248.9585 15.08863253 51351,6917.809,95.436,540.401,538.947,0.0
52856.0,STARLINK-4201,PAYLOAD,2023-05-21 03:36:48,15.08844491,0.0001706,53.2142,298.9677,74.1372,285.9808,0.00015475,2.176e-05,0.0,0 STARLINK-4201,1 52856U 22062AC  23141.15055758  .00002176  00000-0  15475-3 0  9996,2 52856  53.2142 298.9677 0001706  74.1372 285.9808 15.08844491 51898,6917.867,95.437,540.912,538.551,0.0
52856.0,STARLINK-4201,PAYLOAD,2023-05-21 13:09:07,15.08825131,7.14e-05,53.2141,297.1868,79.1273,280.9799,-0.000362,-6.042e-05,0.0,0 STARLINK-4201,1 52856U 22062AC  23141.54800146 -.00006042  00000-0 -36200-3 0  9995,2 52856  53.2141 297.1868 0000714  79.1273 280.9799 15.08825131 51460,6917.926,95.438,540.285,539.297,0.0
52856.0,STARLINK-4201,PAYLOAD,2023-05-21 14:44:30,15.08824766,8.66e-05,53.2144,296.8885,74.5164,285.5924,-0.00031689,-5.325e-05,0.0,0 STARLINK-4201,1 52856U 22062AC  23141.61424292 -.00005325  00000-0 -31689-3 0  9996,2 52856  53.2144 296.8885 0000866  74.5164 285.5924 15.08824766 51963,6917.927,95.439,540.391,539.193,0.0
52856.0,STARLINK-4201,PAYLOAD,2023-05-21 19:30:40,15.08830836,0.0001007,53.2144,295.9957,70.9603,289.1498,8.2573e-06,-1.56e-06,0.0,0 STARLINK-4201,1 52856U 22062AC  23141.81296427 -.00000156  00000-0  82573-5 0  9991,2 52856  53.2144 295.9957 0001007  70.9603 289.1498 15.08830836 51500,6917.908,95.438,540.47,539.077,0.0
52856.0,STARLINK-4201,PAYLOAD,2023-05-22 03:27:36,15.08837473,0.0001034,53.2147,294.5082,67.3097,292.8004,0.00099132,0.00015523,0.0,0 STARLINK-4201,1 52856U 22062AC  23142.14416730  .00015523  00000-0  99132-3 0  9999,2 52856  53.2147 294.5082 0001034  67.3097 292.8004 15.08837473 52042,6917.888,95.438,540.468,539.038,0.0
52856.0,STARLINK-4201,PAYLOAD,2023-05-22 09:49:08,15.08846913,0.0001045,53.2146,293.3186,64.9623,295.1478,0.001374,0.00021651,0.0,0 STARLINK-4201,1 52856U 22062AC  23142.40912814  .00021651  00000-0  13740-2 0  9991,2 52856  53.2146 293.3186 0001045  64.9623 295.1478 15.08846913 51592,6917.859,95.437,540.447,539.001,0.0
52856.0,STARLINK-4201,PAYLOAD,2023-05-22 16:10:41,15.08853996,0.000105,53.2146,292.1291,63.5471,296.5629,0.0012264,0.00019291,0.0,0 STARLINK-4201,1 52856U 22062AC  23142.67408654  .00019291  00000-0  12264-2 0  9999,2 52856  53.2146 292.1291 0001050  63.5471 296.5629 15.08853996 51635,6917.838,95.437,540.429,538.976,0.0
52856.0,STARLINK-4201,PAYLOAD,2023-05-23 09:39:55,15.08846578,0.0001298,53.2146,288.858,82.2565,277.8574,0.00034347,5.184e-05,0.0,0 STARLINK-4201,1 52856U 22062AC  23143.40272630  .00005184  00000-0  34347-3 0  9997,2 52856  53.2146 288.8580 0001298  82.2565 277.8574 15.08846578 52230,6917.86,95.437,540.623,538.827,0.0
52856.0,STARLINK-4201,PAYLOAD,2023-05-23 16:01:28,15.08843327,0.0001237,53.2151,287.6687,79.032,281.0812,0.00020479,2.973e-05,0.0,0 STARLINK-4201,1 52856U 22062AC  23143.66768677  .00002973  00000-0  20479-3 0  9990,2 52856  53.2151 287.6687 0001237  79.0320 281.0812 15.08843327 51787,6917.87,95.437,540.591,538.879,0.0
52856.0,STARLINK-4201,PAYLOAD,2023-05-24 09:30:42,15.08842012,0.000112,53.2155,284.3983,73.7233,286.3882,9.9526e-05,1.297e-05,0.0,0 STARLINK-4201,1 52856U 22062AC  23144.39632796  .00001297  00000-0  99526-4 0  9991,2 52856  53.2155 284.3983 0001120  73.7233 286.3882 15.08842012 52381,6917.874,95.437,540.514,538.964,0.0
